{
  "norad_id": 61516,
  "name": "STARLINK-32047",
  "history": [
    {
      "epoch": "2026-03-28T21:29:41.541216Z",
      "apogee_km": 476.1655742641897,
      "perigee_km": 474.3587441098616,
      "latitude_deg": -3.8696598485766334e-05,
      "longitude_deg": -95.55091620266909,
      "height_km": 476.10493905488784,
      "semi_major_axis_km": 6853.399159187025,
      "eccentricity": 0.00013182,
      "inclination_deg": 53.1608,
      "raan_deg": 53.1817,
      "arg_perigee_deg": 86.4894,
      "mean_anomaly_deg": 273.6257,
      "mean_motion_rev_day": 15.30184229
    },
    {
      "epoch": "2026-03-29T03:45:54.429408Z",
      "apogee_km": 476.13466401517053,
      "perigee_km": 474.36649002029935,
      "latitude_deg": -1.4636562094688596e-07,
      "longitude_deg": 168.92540187448424,
      "height_km": 476.0741032815324,
      "semi_major_axis_km": 6853.387577017735,
      "eccentricity": 0.000129,
      "inclination_deg": 53.1608,
      "raan_deg": 51.9692,
      "arg_perigee_deg": 85.1589,
      "mean_anomaly_deg": 274.9559,
      "mean_motion_rev_day": 15.30188108
    },
    {
      "epoch": "2026-03-30T01:42:37.680480Z",
      "apogee_km": 476.1694802618522,
      "perigee_km": 474.234371482743,
      "latitude_deg": -4.707652486643341e-05,
      "longitude_deg": -165.4047087745228,
      "height_km": 476.20611659925936,
      "semi_major_axis_km": 6853.338925872297,
      "eccentricity": 0.00014118,
      "inclination_deg": 53.1622,
      "raan_deg": 47.7206,
      "arg_perigee_deg": 96.293,
      "mean_anomaly_deg": 263.8231,
      "mean_motion_rev_day": 15.30204402
    },
    {
      "epoch": "2026-03-30T14:15:04.365792Z",
      "apogee_km": 475.787327789506,
      "perigee_km": 474.7328641123222,
      "latitude_deg": 1.580231718192908e-05,
      "longitude_deg": 3.5444197392038848,
      "height_km": 476.13681287637246,
      "semi_major_axis_km": 6853.397095950913,
      "eccentricity": 7.693e-05,
      "inclination_deg": 53.1614,
      "raan_deg": 45.2959,
      "arg_perigee_deg": 87.5899,
      "mean_anomaly_deg": 272.519,
      "mean_motion_rev_day": 15.3018492
    },
    {
      "epoch": "2026-03-30T20:31:17.255712Z",
      "apogee_km": 475.9002802898103,
      "perigee_km": 474.6195174773484,
      "latitude_deg": 1.1347809240584182e-05,
      "longitude_deg": -91.9800011801055,
      "height_km": 476.07403203955056,
      "semi_major_axis_km": 6853.3968988835795,
      "eccentricity": 9.344e-05,
      "inclination_deg": 53.1625,
      "raan_deg": 44.0827,
      "arg_perigee_deg": 82.4024,
      "mean_anomaly_deg": 277.7083,
      "mean_motion_rev_day": 15.30184986
    },
    {
      "epoch": "2026-03-31T05:55:36.334848Z",
      "apogee_km": 475.95909507933357,
      "perigee_km": 474.5198860163182,
      "latitude_deg": -4.91127971099461e-06,
      "longitude_deg": 124.72992888550043,
      "height_km": 476.1338728331676,
      "semi_major_axis_km": 6853.376490547826,
      "eccentricity": 0.000105,
      "inclination_deg": 53.162,
      "raan_deg": 42.2584,
      "arg_perigee_deg": 89.6653,
      "mean_anomaly_deg": 270.4468,
      "mean_motion_rev_day": 15.30191821
    },
    {
      "epoch": "2026-04-01T13:16:40.347264Z",
      "apogee_km": 476.12602041414084,
      "perigee_km": 474.38662918830596,
      "latitude_deg": 1.269622400921081e-05,
      "longitude_deg": 7.108680818157654,
      "height_km": 476.2131918654008,
      "semi_major_axis_km": 6853.393324801224,
      "eccentricity": 0.0001269,
      "inclination_deg": 53.162,
      "raan_deg": 36.1914,
      "arg_perigee_deg": 93.8622,
      "mean_anomaly_deg": 266.2524,
      "mean_motion_rev_day": 15.30186183
    },
    {
      "epoch": "2026-04-02T12:47:27.270528Z",
      "apogee_km": 476.0875102815262,
      "perigee_km": 474.323596975074,
      "latitude_deg": 2.0619703007379554e-05,
      "longitude_deg": 8.899128040171263,
      "height_km": 476.1763502652041,
      "semi_major_axis_km": 6853.3425536283,
      "eccentricity": 0.00012869,
      "inclination_deg": 53.1626,
      "raan_deg": 31.643,
      "arg_perigee_deg": 94.7128,
      "mean_anomaly_deg": 265.402,
      "mean_motion_rev_day": 15.30203187
    },
    {
      "epoch": "2026-04-03T20:08:32.263584Z",
      "apogee_km": 475.6607045469991,
      "perigee_km": 474.8149980903454,
      "latitude_deg": -1.5316228478281766e-05,
      "longitude_deg": -108.7264585790929,
      "height_km": 476.42141052085475,
      "semi_major_axis_km": 6853.374851318672,
      "eccentricity": 6.17e-05,
      "inclination_deg": 53.1628,
      "raan_deg": 25.5758,
      "arg_perigee_deg": 132.2148,
      "mean_anomaly_deg": 227.8905,
      "mean_motion_rev_day": 15.3019237
    },
    {
      "epoch": "2026-04-04T19:39:19.520352Z",
      "apogee_km": 476.32475228993917,
      "perigee_km": 474.0891914863105,
      "latitude_deg": -4.5793449015036795e-05,
      "longitude_deg": -106.94053508475427,
      "height_km": 476.0778365745502,
      "semi_major_axis_km": 6853.3439718881245,
      "eccentricity": 0.0001631,
      "inclination_deg": 53.1607,
      "raan_deg": 21.0243,
      "arg_perigee_deg": 88.6266,
      "mean_anomaly_deg": 271.4921,
      "mean_motion_rev_day": 15.30202712
    },
    {
      "epoch": "2026-04-05T05:03:40.491648Z",
      "apogee_km": 476.19251426644314,
      "perigee_km": 474.43803048471545,
      "latitude_deg": 6.991309020765989e-06,
      "longitude_deg": 109.76443976975841,
      "height_km": 476.0248271222022,
      "semi_major_axis_km": 6853.452272375579,
      "eccentricity": 0.000128,
      "inclination_deg": 53.1608,
      "raan_deg": 19.2029,
      "arg_perigee_deg": 77.5834,
      "mean_anomaly_deg": 282.531,
      "mean_motion_rev_day": 15.30166441
    },
    {
      "epoch": "2026-04-05T19:10:07.999680Z",
      "apogee_km": 475.73816771141446,
      "perigee_km": 474.714275246125,
      "latitude_deg": -6.863543142642945e-05,
      "longitude_deg": -105.15901465825115,
      "height_km": 475.93046376493703,
      "semi_major_axis_km": 6853.363221478769,
      "eccentricity": 7.47e-05,
      "inclination_deg": 53.1617,
      "raan_deg": 16.4735,
      "arg_perigee_deg": 67.635,
      "mean_anomaly_deg": 292.4729,
      "mean_motion_rev_day": 15.30196265
    },
    {
      "epoch": "2026-04-05T23:52:17.386752Z",
      "apogee_km": 475.8304140975806,
      "perigee_km": 474.59420694894834,
      "latitude_deg": 1.4583415459909503e-06,
      "longitude_deg": -176.80030481789305,
      "height_km": 475.9027410500864,
      "semi_major_axis_km": 6853.349310523264,
      "eccentricity": 9.019e-05,
      "inclination_deg": 53.1607,
      "raan_deg": 15.5644,
      "arg_perigee_deg": 70.307,
      "mean_anomaly_deg": 289.8028,
      "mean_motion_rev_day": 15.30200924
    },
    {
      "epoch": "2026-04-07T00:57:08.888544Z",
      "apogee_km": 476.05765487018743,
      "perigee_km": 474.47013308710575,
      "latitude_deg": -3.327218957197834e-05,
      "longitude_deg": 161.10133695274627,
      "height_km": 475.9266495883346,
      "semi_major_axis_km": 6853.400893978646,
      "eccentricity": 0.00011582,
      "inclination_deg": 53.1626,
      "raan_deg": 10.7107,
      "arg_perigee_deg": 72.7166,
      "mean_anomaly_deg": 287.3961,
      "mean_motion_rev_day": 15.30183648
    },
    {
      "epoch": "2026-04-07T18:11:43.918080Z",
      "apogee_km": 476.0223837292915,
      "perigee_km": 474.42555062393876,
      "latitude_deg": -6.181618955295645e-06,
      "longitude_deg": -101.59224883800243,
      "height_km": 475.84870169546383,
      "semi_major_axis_km": 6853.360967176614,
      "eccentricity": 0.0001165,
      "inclination_deg": 53.1618,
      "raan_deg": 7.3712,
      "arg_perigee_deg": 69.9463,
      "mean_anomaly_deg": 290.1663,
      "mean_motion_rev_day": 15.3019702
    },
    {
      "epoch": "2026-04-08T03:36:03.354912Z",
      "apogee_km": 476.18731640392707,
      "perigee_km": 474.29249475707184,
      "latitude_deg": -1.1068144190245327e-05,
      "longitude_deg": 115.11889353273074,
      "height_km": 476.15442810943455,
      "semi_major_axis_km": 6853.376905580499,
      "eccentricity": 0.00013824,
      "inclination_deg": 53.1622,
      "raan_deg": 5.5496,
      "arg_perigee_deg": 90.9899,
      "mean_anomaly_deg": 269.126,
      "mean_motion_rev_day": 15.30191682
    },
    {
      "epoch": "2026-04-09T10:57:06.784992Z",
      "apogee_km": 476.16595089585735,
      "perigee_km": 474.28305835607625,
      "latitude_deg": -3.1008133408040195e-05,
      "longitude_deg": -2.498155154482217,
      "height_km": 476.0303025002009,
      "semi_major_axis_km": 6853.3615046259665,
      "eccentricity": 0.00013737,
      "inclination_deg": 53.1628,
      "raan_deg": 359.4844,
      "arg_perigee_deg": 84.3645,
      "mean_anomaly_deg": 275.7512,
      "mean_motion_rev_day": 15.3019684
    },
    {
      "epoch": "2026-04-10T02:37:38.893152Z",
      "apogee_km": 476.120737733183,
      "perigee_km": 474.3703838271613,
      "latitude_deg": -4.999718945616874e-05,
      "longitude_deg": 118.69077143030158,
      "height_km": 476.2139608547201,
      "semi_major_axis_km": 6853.382560780172,
      "eccentricity": 0.0001277,
      "inclination_deg": 53.1618,
      "raan_deg": 356.4509,
      "arg_perigee_deg": 94.5964,
      "mean_anomaly_deg": 265.5182,
      "mean_motion_rev_day": 15.30189788
    },
    {
      "epoch": "2026-04-11T09:58:43.442112Z",
      "apogee_km": 476.09244924726136,
      "perigee_km": 474.4435200079597,
      "latitude_deg": 6.105268419981697e-05,
      "longitude_deg": 1.0668467437292088,
      "height_km": 476.2272588260747,
      "semi_major_axis_km": 6853.40498462761,
      "eccentricity": 0.0001203,
      "inclination_deg": 53.1627,
      "raan_deg": 350.3834,
      "arg_perigee_deg": 94.2312,
      "mean_anomaly_deg": 265.8827,
      "mean_motion_rev_day": 15.30182278
    }
  ]
}